nom,adresse,adresse2,adresse3,code_postal,ville,email,tel,fax,web,wgs84
Centre d'animation Les Halles Marais,"6-8, place Carrée",Forum des Halles,,75001,Paris,caleshalles@actisce.org,01 40 28 18 48,,http://www.anim-leshalles.org,"48.862424, 2.345859"
Le duc des Lombards,42 rue des Lombards,,,75001,Paris,contact@ducdeslombards.com,01 42 33 22 88,01 40 28 98 52,http://www.ducdeslombards.com/,"48.8597213, 2.348596"
Médiathèque musicale de Paris,8 porte Saint-Eustache,,,75001,Paris,mmp@paris.fr,01 55 80 75 30,,,"48.862357, 2.345843"
Les Voûtes Saint-Honoré,99 rue Saint Honoré,,,75001,Paris,lvsh@wanadoo.fr,01 42 36 90 33,01 42 36 96 38,http://www.lesvoutes-st-honore.com/,"48.8613909, 2.3429797"
Salle Jean Dame A Paris,"17, rue Léopold Bellan",,,75002,Paris,,,,,"48.8665516, 2.345287"
Bibliothèque Marguerite Audoux,10 rue Portefoin,,,75003,Paris,bibliotheque.marguerite-audoux@paris.fr,01 44 78 55 20,,,"48.8635945, 2.360135"
Centre culturel suisse,"32-38, rue des Francs-Bourgeois",,,75003,Paris,ccs@ccsparis.com,01 42 71 44 50,01 42 71 51 24,http://www.ccsparis.com,"48.858274, 2.359646"
Galerie Quang,"7, rue des Filles du Calvaire",,,75003,Paris,info@galerie-quang.com,01 44 54 92 15,09 50 42 81 96,http://www.galerie-quang.com,"48.8624802, 2.3654188"
Bibliothèque Historique de la Ville de Paris,24 rue Pavée,,,75004,Paris,bhvp@paris.fr,01 44 59 29 40,,,"48.8571187, 2.3617496"
Centre Wallonie-Bruxelles,"46, rue de Quincampoix",,,75004,Paris,info@cwb.fr,01†53†01†96†96,01 48 04 90 85,http://www.cwb.fr,"48.861161, 2.35051"
Ircam,1 place Igor-Stravinsky,,,75004,Paris,,01 44 78 48 43,01 44 78 15 45,http://www.ircam.fr/,"48.8594444, 2.3513889"
Théâtre des Blancs-Manteaux,"15, rue des Blancs-Manteaux",,,75004,Paris,infos@blancsmanteaux.fr,,01 42 72 89 16,http://www.blancsmanteaux.fr,"48.8587514, 2.357437"
Centre culturel irlandais,"5, rue des Irlandais",,,75005,Paris,rbeaugendre@centreculturelirlandais.com,01 58 52 10 30,01 58 52 10 99,http://www.centreculturelirlandais.com,"48.8441893, 2.3460214"
Institut Culturel Finlandais,60 rue des Écoles,,,75005,Paris,marja.sakari@institut-finlandais.asso.fr,01 40 51 89 09,01 40 46 09 33,http://institut-finlandais.asso.fr/,"48.8501114, 2.3432972"
Centre culturel tchèque,18 rue Bonaparte,,,75006,Paris,ccparis@czech.cz,01 53 73 00 22,01 53 73 00 27,http://www.czechcentres.cz/paris,"48.8561337, 2.3342597"
Odéon - Théâtre de l'Europe,"2, rue Corneille",,,75006,Paris,odeon@theatre-odeon.fr,01 44 85 40 00,,http://www.theatre-odeon.fr,"48.849561, 2.338714"
Théâtre de Nesle,"8, rue de Nesle",,,75006,Paris,contact@galeriedenesle.com,01 43 25 25 41,01 43 25 00 00,http://www.galeriedenesle.com,"48.8547514, 2.3392438"
Centre culturel de Chine à Paris,1 boulevard de la Tour Maubourg,,,75007,Paris,,01 53 59 59 20,,http://www.cccparis.org,"48.8621458, 2.310561"
Institut Néérlandais,Centre culturel des Pays-Bas,121 rue de Lille,,75007,Paris,info@institutneerlandais.com,01 53 59 12 40,01 45 56 00 77,http://www.institutneerlandais.com/,"48.8614014, 2.3198785"
Espace Beaujon,"208, rue du faubourg Saint-Honoré",,,75008,Paris,info@ebeaujon.org,01 42 89 17 32,01 53 76 00 84,http://www.ebeaujon.org,"48.8752702, 2.3047383"
Instituto Cervantes à Paris,7 rue Quentin Bauchart,,,75008,Paris,cultupar@cervantes.es,01 40 70 92 92,01 47 20 27 49,http://paris.cervantes.es,"48.8692014, 2.2997077"
Studio SFR,"9, rue Tronchet",,,75008,Paris,,01 43 12 75 00,,http://www.lestudiosfr.fr,"48.8729387, 2.3268127"
Théâtre des Champs Élysées,"15, avenue Montaigne",,,75008,Paris,,01 49 52 50 00,,http://www.theatrechampselysees.fr,"48.865678, 2.303228"
Théâtre Tristan Bernard,"64, rue du Rocher",,,75008,Paris,tristan.bernard@akeonet.com,01 42 93 65 36,01 45 22 64 86,http://www.theatretristanbernard.fr/,"48.8787674, 2.3192052"
Centre audiovisuel Simone de Beauvoir,28 place Saint-Georges,,,75009,Paris,developpement@centre-simone-de-beauvoir.com,01 53 32 75 08,,http://www.centre-simone-de-beauvoir.com/,"48.8786538, 2.3378778"
Les Folies Bergère,"32, rue Richer",,,75009,Paris,jmd@jmdprod.com,01 44 79 98 60,01 44 79 98 61,http://www.foliesbergere.com,"48.874094, 2.344856"
International Visual Théâtre / IVT,"7, cité Chaptal",,,75009,Paris,contact@ivt.fr,01 53 16 18 10,01 53 16 18 19,http://www.ivt.fr,"48.8813252, 2.3329418"
Le Palace,"8, rue du faubourg Montmartre",,,75009,Paris,,,,http://www.theatrelepalace.fr,"48.872114, 2.343271"
Théâtre Fontaine,"10, rue Fontaine",,,75009,Paris,adm.fontaine@free.fr,01 48 74 30 68,01 48 78 37 44,http://www.theatrefontaine.com,"48.880957, 2.3347282"
Théâtre Saint-Georges,"51, rue Saint-Georges",,,75009,Paris,admi@theatre-saint-georges.com,01 48 78 74 37,01 45 26 98 00,http://www.theatre-saint-georges.com,"48.8782332, 2.3373477"
Le Brady Cinéma & Théâtre,39 boulevard de Strasbourg,,,75010,Paris,,,,,"48.8716629, 2.355382"
Institut kurde de Paris,106 rue Lafayette,,,75010,Paris,info@fikp.org,01 48 24 64 64,01 48 24 64 66,http://www.institutkurde.org,"48.8776574, 2.3510591"
Laurette Théâtre,"36, rue Bichat",,,75010,Paris,lelaurettetheatre@hotmail.fr,01 42 08 83 33,01 79 72 42 62,http://www.laurette-theatre.fr,"48.8715661, 2.3681149"
La Scène du Canal / Espace Jemmapes,"116, quai de Jemmapes",,,75010,Paris,www.myspace.com/espacejemmapes,,,http://www.jemmapes.com,"48.8748413, 2.3637445"
Théâtre du Petit Saint Martin,17 rue René Boulanger,,,75010,Paris,,,,http://www.petitsaintmartin.com/,"48.8692484, 2.356806"
L'Atelier de La Bonne Graine,"16, passage de la Bonne Graine",,,75011,Paris,poudre_de_sourire@yahoo.fr,01 43 57 40 47,,http://atelierbonnegraine.free.fr/,"48.8524309, 2.3766395"
L'Auguste Théâtre (ex Espace La Comedia),6 impasse Lamier,,,75011,Paris,espacelacomedia@gmail.com,01 43 67 20 47,01 43 67 20 47,http://www.la-comedia.com,"48.8582517, 2.3887446"
Comédie Bastille,"5, rue Nicolas Appert",,,75011,Paris,di.constant@comedie-bastille.com,01 48 07 27 28,01 48 07 07 15,http://www.comedie-bastille.com,"48.85883, 2.370123"
La Générale Nord-Est,"14, avenue Parmentier",,,75011,Paris,contact@lagenerale.fr,,,http://lagenerale.fr/,"48.8595247, 2.3794159"
La Maison des métallos,"94, rue Jean-Pierre Timbaud",,,75011,Paris,,01 48 05 88 27,01 48 05 88 21,http://www.maisondesmetallos.org,"48.8677178, 2.377904"
Nouveau Casino,"109, rue Oberkampf",,,75011,Paris,info@nouveaucasino.net,01 43 57 57 40,01 43 57 57 41,http://www.nouveaucasino.net/,"48.865863, 2.377842"
Théâtre André Bourvil,"13, rue des Boulets",,,75011,Paris,,,,,"48.8500288, 2.3908636"
Théâtre du Temps,"9, rue du Morvan",,,75011,Paris,programmation@theatredutemps.fr,01 43 55 10 88,,http://www.theatredutemps.fr,"48.8601054, 2.3817499"
Le China,"50, rue de Charenton",,,75012,Paris,communication@lechina.eu,01 43 46 22 05 (Simon Touchard),,http://www.lechina.eu/,"48.8499321, 2.3738641"
Parc Floral de Paris,Bois de Vincennes,,,75012,Paris,,,,,"48.8325756, 2.4183258"
Théâtre de La Tempête,La Cartoucherie,Route du Champs de Manœuvre,,75012,Paris,philippe.adrien@la-tempete.fr,01 43 74 94 07,01 43 74 14 51,http://www.la-tempete.fr,"48.836193, 2.448705"
Théâtre du Chaudron,La Cartoucherie,Route du Champ de Manœuvre,,75012,Paris,lechaudron@wanadoo.fr,01 43 28 97 04,01 43 28 40 15,http://www.theatreduchaudron.fr,"48.834738, 2.449387"
Bétonsalon - Centre d'art et de recherche,9 esplanade Pierre Vidal-Naquet,Rez-de-Chaussée de la Halle aux Farines,,75013,Paris,info@betonsalon.net,01 45 84 17 56,,http://www.betonsalon.net,"48.829261, 2.381731"
Médiathèque Jean-Pierre Melville à Paris,79 rue Nationale,,,75013,Paris,mediatheque.jean-pierre.melville@paris.fr,01 53 82 76 76,,,"48.8266697, 2.3665276"
Théâtre du Lierre,"22, rue de Chevaleret",,,75013,Paris,info.lierre@free.fr,01 45 86 55 83,01 45 86 82 89,http://www.letheatredulierre.com/,"48.826401, 2.378167"
Théâtre 13,"103 A, boulevard Auguste Blanqui",,,75013,Paris,contact@theatre13.com,01 45 88 62 22,01 45 89 42 41,http://www.theatre13.com,"48.8303701, 2.3456968"
Bibliothèque Vandamme à Paris,80 avenue du Maine,,,75014,Paris,bibliotheque.vandamme@paris.fr,01 43 22 42 18,,,"48.8385369, 2.3221472"
Théâtre de la Gaîté Montparnasse,"26, rue de la Gaîté",,,75014,Paris,gaite.contact@orange.fr,01 43 20 60 56,01 43 22 56 51,http://www.gaite.com,"48.8393115, 2.3232089"
Centre culturel algérien,171 rue de la Croix-Nivert,,,75015,Paris,contact@cca-paris.com,01 45 54 95 31,01 44 54 95 31,http://www.cca-paris.com,"48.8397081, 2.2901289"
Théâtre Silvia Monfort à Paris,Parc Georges Brassens,106 rue brancion,,75015,Paris,philippe.cumer@lemonfort.fr,01 56 08 33 88,01 45 31 15 71,http://www.lemonfort.fr,"48.8307974, 2.3001766"
Centre culturel du Yemen,25 rue Georges Bizet,,,75016,Paris,kalsalam@yaoo.com,01 53 23 87 84,01 47 23 69 41,http://www.ambyemenfrance.com,"48.867693, 2.296555"
Le Théâtre du Jardin,Jardin d'Acclimatation,Bois de Boulogne,,75016,Paris,contact@theatredujardin.fr,01 40 67 97 67,01 40 67 78 21,http://www.theatredujardin.fr,"48.877671, 2.269717"
Centre d'animation La Jonquière,"88, rue de la Jonquière",,,75017,Paris,accueil@ca-lajonquiere.com,01 42 29 78 79,,http://www.ca-lajonquiere.com/,"48.8947405, 2.3191423"
L'Atalante,"10, place Charles Dullin",,,75018,Paris,latalante.rp@gmail.com,01 42 23 17 29,,http://www.theatre-latalante.com/site/intro.html,"48.8833326, 2.3427713"
Le Caveau des artistes,"79, rue des Martyrs",,,75018,Paris,lecaveaudesartistes@noos.fr,01 42 54 90 43,01 42 54 90 34,,"48.882887, 2.339594"
Ciné 13 Théâtre,"1, avenue Junot",,,75018,Paris,ciné13théâtre@wanadoo.fr,01 42 51 13 79,01 42 54 73 42,http://www.cine13-theatre.com,"48.8875635, 2.3372608"
Lavoir Moderne Parisien,"35, rue Léon",,,75018,Paris,,,,http://www.rueleon.net,"48.8887648, 2.3535699"
Théâtre de Dix-Heures,"36, boulevard de Clichy",,,75018,Paris,contact@dix-heures.net,01 46 06 10 17,,http://www.dix-heures.net,"48.8828639, 2.3363746"
Théâtre des 2 Anes,"100, boulevard de Clichy",,,75018,Paris,deuxanes@yahoo.fr,01 46 06 10 64,,http://www.2anes.com,"48.884241, 2.3316917"
Théâtre Michel Galabru,"4, rue de l'Armée d'Orient",,,75018,Paris,resa.tmg@neuf.fr,01 42 23 15 85,,http://www.theatregalabru.com,"48.8872758, 2.3344816"
les trois baudets,"64, boulevard de clichy",,,75018,Paris,info@lestroisbaudets.com,01 42 62 33 33,,http://www.lestroisbaudets.com,"48.8834498, 2.3344631"
Bouffon Théâtre,"26, rue de Meaux",,,75019,Paris,contact@bouffontheatre.com,01 42 38 35 53,01 42 38 35 53,http://www.bouffontheatre.com,"48.879845, 2.3723014"
Cité de la Musique,"221, avenue Jean Jaurès",,,75019,Paris,directiongenerale@cite-musique.fr,01 44 84 44 84,,http://www.cite-musique.fr,"48.8895857, 2.3939185"
MK2 Quai de Seine,14 Quai de la Seine,,,75019,Paris,,,,,"48.885065, 2.371404"
Théâtre Darius Milhaud,"80, allée Darius Milhaud",,,75019,Paris,tdm4@orange.fr,01 42 01 92 26,01 42 49 00 22,http://www.theatredariusmilhaud.fr,"48.8859779, 2.3931757"
Théâtre des Deux Rêves,"5, passage de Thionville",,,75019,Paris,pandobastille@gmail.com,01 48 03 49 92,,http://www.deuxreves.org,"48.8879833, 2.3820727"
La Bellevilloise,"19, rue Boyer",,,75020,Paris,f.martinez@labellevilloise.com,01 53 27 35 77,01 53 27 35 70,http://www.labellevilloise.com,"48.868229, 2.392235"
Confluences,"190, boulevard de Charonne",,,75020,Paris,info@confluences.net,01 40 24 16 34,01 40 24 16 04,http://confluences.jimdo.com/,"48.8578182, 2.3925333"
Studio de l'Ermitage,"8, rue de l'Ermitage",,,75020,Paris,studioermitage@free.fr,,01 44 62 09 85,http://www.studio-ermitage.com,"48.8699891, 2.3916783"
Le Tarmac (scène internationale francophone),159 avenue Gambetta,,,75020,Paris,contact@letarmac.fr,01 40 31 20 96,01 43 64 07 50,http://www.letarmac.fr,"48.8703681, 2.4031773"
Théâtre Les Enfants terribles,"157, rue Pelleport",,,75020,Paris,contact@lesenfantsterribles.fr,01 46 36 19 66,01 46 36 19 66,http://www.lesenfantsterribles.fr/,"48.874185, 2.396586"
Tréteaux de France,11 rue Yvon Villarceau,,,75116,Paris,treteaux@treteauxdefrance.com,01 45 01 91 32,01 45 01 69 37,http://www.treteauxdefrance.com/,"48.8686964, 2.2872631"
Le Baiser salé,"58, rue des Lombards",,,75001,Paris,ivana@lebaisersale.com,01 42 33 37 71,,http://www.lebaisersale.om,"48.8597733, 2.3479173"
Les Déchargeurs,"3, rue des Déchargeurs",,,75001,Paris,infos@lesdechargeurs.fr,,01 42 36 15 22,http://www.lesdechargeurs.fr,"48.8596937, 2.3459332"
Forum des images,2 rue du Cinéma,Forum des Halles,Porte Saint-Eustache,75001,Paris,contact@forumdesimages.fr,01 44 76 63 00,01 44 76 62 00,http://www.forumdesimages.fr,"48.863642, 2.345617"
Théâtre du Palais Royal,"38, rue Montpensier",,,75001,Paris,tpr@theatrepalaisroyal.com,01 42 97 59 76,01 42 61 42 50,http://www.theatrepalaisroyal.com,"48.8661017, 2.3374868"
La Pépinière Opéra,"7, rue Louis-le-Grand",,,75002,Paris,contact@theatrelapepiniere.com,01 42 61 42 53,01 42 60 36 34,http://theatrelapepiniere.com/,"48.8686693, 2.3324107"
Théâtre des Variétés,"7, boulevard Montmartre",,,75002,Paris,,01 42 33 11 41,01 42 33 83 62,http://www.theatre-des-varietes.fr,"48.8714945, 2.3422074"
Centre culturel suédois,Hôtel de Marle,"11, rue Payenne",,75003,Paris,info@ccs.si.se,01 44 78 80 20,01 44 78 80 27,http://www.si.se,"48.8581638, 2.362247"
Galerie numeriscausa,"53, bd Beaumarchais",,,75003,Paris,contact@numeriscausa.com,01 42 78 24 26,,http://www.numeriscausa.com,"48.8572088, 2.3681049"
Bibliothèque Forney à Paris,1 rue du Figuier,,,75004,Paris,bibliotheque.forney@paris.fr,01 42 78 14 60,,,"48.8534584, 2.3590394"
Centre Georges Pompidou,Place Georges Pompidou,,,75004,Paris,vivant.spectacle@centrepompidou.fr,,,http://www.centrepompidou.fr,"48.860646, 2.352237"
Théâtre de l'Ile Saint-Louis - Paul Rey,"39, quai d'Anjou",,,75004,Paris,contact@theatre-ilesaintlouis.com,01 46 33 48 65,01 46 33 48 65,http://www.theatre-ilesaintlouis.com,"48.8523192, 2.3573231"
Bibliothèque Mouffetard à Paris,74 rue Mouffetard,,,75005,Paris,bibliotheque.mouffetard@paris.fr,01 43 37 96 54,,,"48.8425926, 2.3497862"
Centre culturel d'Egypte à Paris,111 bd Saint-Michel,,,75005,Paris,centre@culture-egypte.com,01 46 33 75 67,01 43 26 18 83,http://www.culture-egypte.com,"48.8434867, 2.3389465"
Espace Saint-Michel,7 place Saint-Michel,,,75005,Paris,espacesaintmichel@fr.st,01 44 07 20 49,,http://cinemasaintmichel.free.fr/,"48.8531155, 2.344223"
Centre culturel iranien,6 rue Jean Bart,,,75006,Paris,cci@cciran.com,01 45 49 19 20,01 45 49 31 34,http://paris.icro.ir/,"48.8477845, 2.3309318"
Maison des Pratiques Artistiques Amateurs,Auditorium Saint-Germain,"4, rue Félibien",,75006,Paris,contact@mpaa.fr,01 46 34 68 58,01 46 34 68 71,http://www.mpaa.fr,"48.8519141, 2.3367057"
Poche Montparnasse,"75, boulevard du Montparnasse",,,75006,Paris,montparnasse.theatre-de-poche@wanadoo.fr,01 45 48 92 97,01 42 84 12 91,,"48.8436849, 2.3251231"
Centre Culturel Canadien,5 rue de Constantine,,,75007,Paris,infos@www.canada-culture.org,01 44 43 21 90,01 44 43 21 99,,"48.8605297, 2.3150056"
Institut Culturel Italien de Paris,73 rue de Grenelle,,,75007,Paris,iicparigi@esteri.it,01 44 39 49 39,01 42 22 37 88,http://www.iicparigi.esteri.it/,"48.8553397, 2.3239852"
Elysées Biarritz,22-24 rue Quentin Bauchart,,,75008,Paris,contact@elyseesbiarritz.com,01 53 57 40 82,,http://www.elyseesbiarritz.com/,"48.8713811, 2.3025375"
"Institut Ramon Lull, , langues et cultures catalanes",3 rue de la Boétie,,,75008,Paris,,01 42 66 02 45,01 47 42 07 63,http://www.llull.cat/llull/,"48.8725864, 2.3100791"
Salle Pleyel,"252, rue du Faubourg Saint-Honoré",,,75008,Paris,rp@sallepleyel.fr,01 53 38 38 00,01 53 38 38 01,http://www.sallepleyel.fr,"48.87698, 2.300895"
Théâtre de la Madeleine,"19, rue de Surène",,,75008,Paris,contact@theatremadeleine.com,01 42 65 06 28,01 42 66 27 80,http://www.theatremadeleine.com,"48.8709956, 2.3205643"
Théâtre Michel,"38, rue des Mathurins",,,75008,Paris,administration@theatre-michel.fr,01 42 65 41 30,,http://www.theatre-michel.fr/,"48.8732879, 2.3254675"
Le Casino de Paris,"16, rue de Clichy",,,75009,Paris,jgomez@casinodeparis.fr,01 49 95 22 22,01 49 95 22 25,http://www.casinodeparis.fr,"48.878331, 2.33005"
Comédie de Paris,"42, rue Pierre Fontaine",,,75009,Paris,administration@comediedeparis.com,01 42 81 32 22,01 45 26 37 06,http://www.comediedeparis.com/,"48.8830076, 2.3332043"
Opéra National de Paris - Palais Garnier,"8, rue Scribe",,,75009,Paris,,01 40 01 80 54,,http://www.operadeparis.fr,"48.8719343, 2.3317666"
Théâtre des Nouveautés,"24, boulevard Poissonnière",,,75009,Paris,theatredesnouv@wanadoo.fr,01 47 70 52 77,01 45 23 30 37,http://www.theatredesnouveautes.fr/,"48.871425, 2.344873"
Théâtre Edouard VII,10 place Édouard VII,,,75009,Paris,contact@theatreedouard7.com,01 47 42 35 71,01 47 42 77 68,http://www.theatreedouard7.com,"48.87137, 2.329058"
Théâtre Mogador,"25, rue de Mogador",,,75009,Paris,contact@mogador.net,01 53 32 32 32,,http://www.mogador.net,"48.875286, 2.331204"
Bibliothèque Lancry à Paris,11 rue de Lancry,,,75010,Paris,bibliotheque.lancry@paris.fr,01 42 03 25 98,,,"48.869387, 2.360108"
Espace Château-Landon théâtre,"31, rue de Château-Landon",,,75010,Paris,information-cl@crl10.net,01 46 07 84 12,01 46 07 08 73,http://www.chateaulandon.com,"48.883307, 2.363922"
La Java,"105, rue du Faubourg-du-Temple",,,75010,Paris,administration@la-java.fr,01 42 02 20 52,01 40 18 14 58,http://www.la-java.fr/,"48.870925, 2.373905"
Point éphémère,"200, quai de Valmy",,,75010,Paris,info@pointephemere.org,,01 40 34 02 58,http://www.pointephemere.org,"48.881187, 2.368235"
Théâtre du Gymnase - Marie Bell,"38, boulevard Bonne-Nouvelle",,,75010,Paris,theatredugymnase@msn.com,01 42 46 15 11,01 45 23 19 24,http://www.theatredugymnase.com,"48.870841, 2.347769"
Ars Longa,"67, avenue Parmentier",,,75011,Paris,info.arslonga@gmail.com,01 43 55 47 71,,http://www.arslonga.info,"48.8639625, 2.375494"
Café de la Danse,"5, passage Louis-Philippe",,,75011,Paris,contact@cafedeladanse.com,01 47 00 57 59,01 48 05 65 22,http://www.cafedeladanse.com,"48.854099, 2.372899"
Les Disquaires,"6, rue des Taillandiers",,,75011,Paris,,01 40 21 94 60,,http://www.lesdisquaires.com/,"48.8538795, 2.3755058"
Espace†Turquetil Centre Culturel Franco-Japonais,8-10 passage Turquetil,,,75011,Paris,sachiko.hattori@ccfj-paris.org,01 43 48 83 64,01 43 48 00 38,http://www.ccfj-paris.org/,"48.8514222, 2.3928219"
La Loge,"77, rue de Charonne",,,75011,Paris,laloge.alice@gmail.com,,,http://www.lalogeparis.fr/,"48.8538774, 2.3815069"
La Scène Bastille,"2 bis, rue des Taillandiers",,,75011,Paris,contact@scenebastille.com,01 48 06 50 70,01 48 06 12 79,http://www.scenebastille.com,"48.853541, 2.375761"
Théâtre de la Bastille,"76, rue de la Roquette",,,75011,Paris,accueil@theatre-bastille.com,01 43 57 26 63,,http://www.theatre-bastille.com,"48.855821, 2.375481"
Théâtre de la Marionnette à Paris,"38, rue Basfroi",,,75011,Paris,info@theatredelamarionnette.com,01 44 64 79 70,01 44 64 79 72,http://www.theatredelamarionnette.com,"48.8556609, 2.3788964"
Centre Ressources Théâtre et Handicap,école différente de théâtre O Clair de la lune,163 rue de Charenton,,75012,Paris,information@crth.org,01 42 74 17 87,01 43 40 38 25,http://www.crth.org,"48.8446053, 2.3840184"
Palais Omnisport de Paris Bercy,"8, boulevard de Bercy",,,75012,Paris,,,,http://www.bercy.fr,"48.8401275, 2.3804432"
Théâtre de l'Opprimé,"78-80, rue du Charolais",,,75012,Paris,theatredelopprime@tdopp.com,01 43 45 81 20,,http://www.theatredelopprime.fr,"48.8431495, 2.3829504"
Théâtre Douze Maurice Ravel,"6, avenue Maurice-Ravel",,,75012,Paris,theatredouze@laligue.org,01 44 75 60 31,01 43 44 45 30,http://www.theatredouze.fr,"48.8415527, 2.4115664"
Batofar,"Face au 11, Quai François Mauriac",,,75013,Paris,contact@batofar.org,,,http://www.batofar.org,"48.8356845, 2.3753957"
La Dame de Canton,Port de la gare,Quai François Mauriac,,75013,Paris,public@damedecanton.com,01 53 61 08 49,0145 84 41 71,http://www.damedecanton.com,"48.8341379, 2.377319"
Théâtre des Cinq Diamants,"10, rue des Cinq Diamants",,,75013,Paris,info@theatre-5-diamants.fr,01 45 80 51 31,,http://www.theatre-5-diamants.fr/,"48.8298193, 2.3520009"
Bibliothèque Gutenberg à Paris,8 rue de la Montagne d'Aulas,,,75014,Paris,bibliotheque.gutenberg@paris.fr,01 45 54 69 76,,http://equipement.paris.fr/Bibliothèque_Gutenberg,"48.8402475, 2.2787776"
Théâtre 14 Jean-Marie Serreau,"20, avenue Marc Sangnier",,,75014,Paris,contact@theatre14.fr,01 45 45 49 77,,,"48.8262507, 2.3065106"
Théâtre de la Cité internationale,"17, boulevard Jourdan",,,75014,Paris,theatredelacite@theatredelacite.com,01 43 13 50 60,01 45 80 91 90,http://www.theatredelacite.com,"48.8200169, 2.3386933"
Agitakt,"21, avenue du Maine",,,75015,Paris,,01 45 44 78 75,,,"48.8435327, 2.3203248"
Théâtre Aire Falguière,"55, rue de la Procession",,,75015,Paris,vuemer1@orange.fr,01 40 43 92 73,,http://aire.falguiere.free.fr,"48.8365746, 2.309742"
Centre culturel coréen,2 avenue d'Iéna,,,75016,Paris,ccc@coree-culture.org,01 47 20 84 15,01 47 23 58 97,http://www.coree-culture.org,"48.8631469, 2.2919825"
Institut slovaque de Paris,125 rue du Ranelagh,,,75016,Paris,krizikova@mzv.sk,01 71 93 91 3,01 71 93 73 59,http://www.siparis.mfa.sk,"48.8560179, 2.2680298"
Bibliothèque Batignolles à Paris,18 rue des Batignolles,,,75017,Paris,bibliotheque.batignolles@paris.fr,01 44 69 18 30,01 44 69 18 29,,"48.8843495, 2.3219934"
Alambic comédie,"12, rue Neuve de la Chardonnière",,,75018,Paris,contact.alambicomedie@gmail.com,01 42 23 07 66,,http://www.alambic-comedie.com,"48.895254, 2.3482324"
La Boule Noire,"120, boulevard de Rochechouart",,,75018,Paris,jeanpaul.rosselin@lacigale.fr,01 49 25 81 75,01 42 23 67 04,http://www.laboule-noire.fr,"48.882283, 2.3401548"
La Cigale,"120, boulevard de Rochechouart",,,75018,Paris,accueil@lacigale.fr,01 49 25 81 75,01 42 23 67 04,http://www.lacigale.fr,"48.882291, 2.340157"
Le Grand Parquet,20 bis rue du Département,,,75018,Paris,francois.grosjean@legrandparquet.net,01 40 05 01 50,,http://www.legrandparquet.net/,"48.8860664, 2.3637543"
Sudden Théâtre,"14 bis, rue Sainte-Isaure",,,75018,Paris,sudden@wanadoo.fr,01 42 62 35 00,01 42 57 40 74,http://www.suddentheatre.fr,"48.8940768, 2.3443201"
Théâtre de Verre,17 rue de la Chapelle,,,75018,Paris,theatredeverre@hotmail.fr,09 52 68 84 16,,http://www.theatredeverre.fr/,"48.8915686, 2.3596921"
Le Trianon,"80, boulevard Rochechouart",,,75018,Paris,contact@letrianon.fr,01 44 92 78 00,01 72 70 36 02,http://www.letrianon.fr/,"48.882877, 2.34311"
Bibliothèque Claude Lévi-Strauss à Paris,41 avenue de Flandre,,,75019,Paris,bibliotheque.claude.levi-strauss@paris.fr,01 40 35 96 46,,,"48.8869416, 2.3718418"
Bibliothèque Place des Fêtes à Paris,18 rue Janssen,,,75019,Paris,bibliotheque.place-des-fetes@paris.fr,01 42 49 55 90,,,"48.8793745, 2.397682"
Centre d'animation Mathis,"15, rue Mathis",,,75019,Paris,camathis@laligue.org,01 40 34 50 80,,,"48.8907598, 2.3749563"
Glazart,7-15 Avenue de la Porte de la Villette,,,75019,Paris,hello@glazart.com,01 40 36 55 65,01 40 36 09 50,http://www.glazart.com,"48.899288, 2.386694"
Théâtre Clavel,"3, rue Clavel",,,75019,Paris,contact@theatre-clavel.com,,01 42 38 11 35,http://www.theatre-clavel.com,"48.8744026, 2.385113"
Théâtre de la Providence,"73, rue Rébeval",,,75019,Paris,thprovidence@multimania.com,01 42 00 25 75,01 42 00 27 57,http://thprovidence.multimania.com,"48.874563, 2.38142"
Le Zénith de Paris,Parc de la Villette,"211, avenue Jean Jaurès",,75019,Paris,contact@le-zenith.com,01 44 52 54 60,01 42 49 84 77,http://www.le-zenith.com,"48.894264, 2.393149"
Comédie de la Passerelle,"102, rue Orfila",,,75020,Paris,comediedelapasserelle@yahoo.fr,01 43 15 03 70,,http://comedie.passerelle.free.fr/,"48.8679043, 2.3998183"
L'Ogresse Théâtre de marionnettes,"4, rue des Prairies",,,75020,Paris,,01 46 36 95 15,,http://www.ogresse.org,"48.8612287, 2.4047988"
Théâtre des Quarts d'Heures,"10, square des Cardeurs",,,75020,Paris,http://www.thqh.fr,01 40 09 17 73,09 56 75 08 16,,"48.858166, 2.407528"
Centre de Russie pour la science et la culture,61 rue Boissière,,,75116,Paris,ruscentr@wanadoo.fr,01 44 34 79 79,01 47 27 12 45,http://www.russiefrance.org,"48.868275, 2.2875107"
Palais de Tokyo - Site de création contemporaine,"13, rue du Président Wilson",,,75116,Paris,,01 47 23 54 01,,http://www.palaisdetokyo.com,"48.8641085, 2.29646374102"
Centre India,La route des Indes,7 rue d'Argenteuil,,75001,Paris,,01 45 42 72 13,,,"48.8646375, 2.3338723"
Église Saint Roch,24 rue Saint Roch,,,75001,Paris,,01 42 44 13 20,01 42 44 13 19,,"48.8644506, 2.3317141"
Le Scop'Club,5 avenue de l'Opéra,,,75001,Paris,infos@lescopclub.com,01 42 60 64 45,,http://www.lescopclub.com/,"48.864531, 2.334892"
Bouffes Parisiens,"4, rue Monsigny",,,75002,Paris,nathalie.cacheux@bouffesparisiens.com,01 42 96 92 40,01 42 86 88 73,http://www.bouffesparisiens.com,"48.8683903, 2.3354035"
Centre Jean Dame,17 rue Léopold Bellan,,,75002,Paris,alexandre.gibert@paris.fr,01 55 80  78 35,,,"48.8665516, 2.345287"
Sentier des Halles,"50, rue d'Aboukir",,,75002,Paris,,01 42 61 89 90,01 42 61 89 96,http://www.sentierdeshalles.fr,"48.867394, 2.3455999"
La Comédie République,"1, boulevard Saint-Martin",,,75003,Paris,,01 40 29 03 02,01 40 29 97 28,http://www.comedierepublique.com,"48.868201, 2.362143"
Instituto cultural de Mexico,119 rue Vieille-du-Temple,,,75003,Paris,idemex@wanadoo.fr,01 44 61 84 44,01 44 61 84 45,http://www.mexiqueculture.org,"48.8609945, 2.3625348"
Bibliothèque Isle Saint-Louis à Paris,21 rue Saint-Louis en l'ile,,,75004,Paris,bibliotheque.isle-saint-louis@paris.fr,01 56 81 28 10,,,"48.8514761, 2.3573883"
L'Essaïon,"6, rue Pierre-au-Lard",,,75004,Paris,administration@essaion.com,01 42 78 61 73,,http://www.essaion.com,"48.8596354, 2.35322"
Micadanses,"16, rue Geoffroy l'Asnier",,,75004,Paris,infos@micadanses.Fr,01 42 74 46 00,01 42 74 64 00,http://www.micadanses.fr,"48.8545318, 2.3562167"
Théâtre Espace Marais,"22, rue Beautreillis",,,75004,Paris,,01 48 04 91 55,01 48 04 94 40,,"48.8534791, 2.364257"
Centre Culturel†Italien,4 rue des Prêtres St Séverin,,,75005,Paris,,01 46 34 27 00,01 43 54 20 85,http://www.centreculturelitalien.com/,"48.852272, 2.345275"
Institut du monde arabe,Place Mohammed V,"1, rue des Fossés Saint-Bernard",,75005,Paris,,01 40 51 38 38,01 43 54 76 45,http://www.imarabe.org,"48.849268, 2.3554666"
Théâtre de la Huchette,"23, rue de la Huchette",,,75005,Paris,administration@theatre-huchette.com,09 60 40 30 29,,http://www.theatredelahuchette.com,"48.8530589, 2.3453459"
Comédie française / Théâtre du Vieux Colombier,"21, rue du Vieux-Colombier",,,75006,Paris,,01 44 39 87 00,01 44 39 87 19,http://www.comedie-francaise.fr,"48.8517349, 2.3303968"
Théâtre du Lucernaire,"53, rue Notre-Dame-des-Champs",,,75006,Paris,,01 42 22 26 50,01 45 44 86 92,http://www.lucernaire.fr,"48.8442572, 2.3303711"
Centre Culturel de Taipei à Paris,78 rue de l'université,,,75007,Paris,contact@ccacctp.org,01 44 39 88 66,01 44 39 88 79,http://www.ccacctp.org/,"48.8591873, 2.3247598"
Maison de l'Amérique latine,217 boulevard Saint-Germain,,,75007,Paris,culturel@mal217.org,01 49 54 75 00,01 45 49 06 33,http://www.mal217.org,"48.857342, 2.3237558"
Espace Pierre Cardin,"1-3, avenue Gabriel",,,75008,Paris,espacecardin@wanadoo.fr,01 44 56 02 02,01 44 56 02 16,http://www.pierrecardin.com,"48.8674865, 2.3187235"
Le Grand Palais,Avenue Winston-Churchill (entrée du public),Cours la Reine - Porte D (entrée administrative),,75008,Paris,,,,http://www.grandpalais.fr,"48.8661793, 2.313089"
Jeu de Paume,1 place de la Concorde,,,75008,Paris,info@jeudepaume.org,01 47 03 12 50,,http://www.jeudepaume.org/,"48.8657992, 2.3240664"
Théâtre des Mathurins,"36, rue des Mathurins",,,75008,Paris,contact@theatredesmathurins.com,01 42 65 62 46,01 49 24 91 69,http://www.theatredesmathurins.com/,"48.873263, 2.325684"
L'Antre Magique,"50, rue Saint-Georges",,,75009,Paris,antremagique@gmail.com,01 39 68 20 20,,http://www.antremagique.fr,"48.8773785, 2.3373861"
Centre culturel anatolie,77 rue Lafayette,,,75009,Paris,cca-anatolie@orange.fr,01 42 80 04 74,01 42 80 61 12,http://www.cca-anatolie.com,"48.876389, 2.345514"
La Grande Comédie,"42, rue de Clichy",,,75009,Paris,,08 99 56  46 68,,http://www.lagrandecomedie.com,"48.8794876, 2.3292929"
Le Limonaire,"18, cité Bergère",,,75009,Paris,limonaire@free.fr,01 45 23 33 33,,http://limonaire.free.fr,"48.8723681, 2.3449676"
Petit Théâtre de Paris,"15, rue Blanche",,,75009,Paris,contact@theatredeparis.com,,,http://www.theatredeparis.com,"48.8786247, 2.33155"
Théâtre Grévin,"10, boulevard Montmartre",,,75009,Paris,contact@grevin.com,01 47 70 85 05,01 47 70 06 53,http://www.grevin.com/,"48.8718236, 2.3421599"
Théâtre Trévise,"14, rue de Trévise",,,75009,Paris,thierry@theatre-trevise.com,01 45 23 35 45,,http://www.theatre-trevise.com,"48.873408, 2.345342"
L'Archipel,"17, boulevard de Strasbourg",,,75010,Paris,administration@larchipel.net,01 48 00 04 35,,http://www.larchipel.net,"48.8704463, 2.3546794"
Centre d'animation de la Grange-aux-Belles,"55, rue de la Granges-aux-Belles",,,75010,Paris,,01 42 03 40 78,01 42 03 47 67,http://www.crl10.net,"48.876923, 2.368999"
Le Local,"18, rue de l'Orillon",,,75010,Paris,infos@le-local.net,01 46 36 11 89,,http://le-local.net,"48.8700943, 2.3759687"
Théâtre Antoine Simone Berriau,"14, boulevard de Strasbourg",,,75010,Paris,theatre.antoine@wanadoo.fr,01 42 08 46 28,01 42 08 38 40,http://www.theatre-antoine.com,"48.870587, 2.355182"
Théâtre du Splendid,"48, rue du Faubourg Saint-Martin",,,75010,Paris,splendid@noos.fr,01 42 08 13 45,01 42 41 20 74,http://www.lesplendid.com,"48.8707275, 2.356709"
Au Chat noir,"76, rue Jean-Pierre Timbaud",,,75011,Paris,auchatnoir@gmail.com,01 48 06 98 22,,http://auchatnoir.free.fr,"48.8673668, 2.3760961"
Le Bataclan,"50, boulevard Voltaire",,,75011,Paris,,,,http://www.le-bataclan.com,"48.863063, 2.370815"
Comédie des 3 Bornes,"32, rue des Trois-Bornes",,,75011,Paris,contact@trois-bornes.com,01 43 57 68 29,01 43 57 68 29,http://www.trois-bornes.com,"48.8675132, 2.3754918"
l'International,"5-7, rue Moret",,,75011,Paris,contact@linternational.fr,01 49 29 76 45,,http://www.linternational.fr/,"48.8667795, 2.3799041"
La Ménagerie de Verre,"12-14, rue Léchevin",,,75011,Paris,info@menagerie-de-verre.org,01 43 38 33 44,01 43 38 74 56,http://www.menagerie-de-verre.org,"48.863316, 2.37671"
Le Passage vers les étoiles,"17, cité Joly",,,75011,Paris,passageversetoiles@free.fr,01 43 38 83 45,,http://passage.vers.etoiles.free.fr/,"48.8627422, 2.3826582"
Théâtre Artistic-Athévains,"45 bis, rue Richard Lenoir",,,75011,Paris,aatheatre@gmail.com,01 43 56 38 46,01 43 56 08 97,http://www.artistic-athevains.com,"48.856582, 2.380991"
Théâtre Le Temple,"18, rue du Faubourg-du-Temple",,,75011,Paris,contact@theatreletemple.com,01 43 38 45 83,,http://www.theatreletemple.com,"48.868199, 2.366387"
La Maison d'Europe et d'Orient,"3, passage Hennel",accès par le 105 avenue Daumesnil,,75012,Paris,,01 40 24 00 55,01 40 24 00 59,http://www.sildav.org,"48.8450493, 2.3799851"
Médiathèque Hélène Berr à Paris,70 rue de Picpus,,,75012,Paris,mediatheque.helene-berr@paris.fr,01 43 45 87 12,,,"48.8425712, 2.3974443"
Théâtre Astral,Parc Floral de Paris,,,75012,Paris,theatre.astral@wanadoo.fr,01 43 71 31 10,,http://www.theatreastral.com/,"48.83834, 2.44645"
Théâtre du Soleil,La Cartoucherie,Route du Champ de Manœuvre,,75012,Paris,,01 43 74 87 63,01 43 28 33 61,http://www.theatre-du-soleil.fr,"48.83501, 2.449296"
La Cachette,"124, avenue d'Italie",,,75013,Paris,contact@la-cachette.com,01 45 89 02 20,,http://www.la-cachette.com,"48.8237658, 2.3577739"
Péniche El Alamein,Quai François Mauriac,Port de la gare,,75013,Paris,bateaulalamein@yahoo.fr,06 82 04 82 46,,,"48.8348235, 2.3771864"
Théâtre Dunois,"7, rue Louise Weiss",,,75013,Paris,contact@theatredunois.org,01 45 84 72 00,01 45 86 39 24,http://www.theatredunois.org/,"48.8331304, 2.370547"
Au Magique,"42, rue de Gergovie",,,75014,Paris,havet@aumagique.com,01 45 42 26 10,,http://www.aumagique.com,"48.8331668, 2.3158605"
La Comédie italienne,"17/19, rue de la Gaîté",,,75014,Paris,comedieitalienne@orange.fr,01 43 21 22 22,,http://www.comedie-italienne.fr,"48.840043, 2.3239639"
Théâtre Montparnasse,"31, rue de la Gaîté",,,75014,Paris,theatre@theatremontparnasse.com,01 43 22 77 30,,http://www.theatremontparnasse.com,"48.8394969, 2.3235395"
Espace Paris Plaine,13 rue du Général Guillaumat,,,75015,Paris,espaceparisplaine@orange.fr,01 40 43 01 82,01 42 50 47 77,http://www.espaceparisplaine.com/,"48.8279165, 2.2929615"
Maison de la culture du Japon de Paris,"101 bis, quai Branly",,,75015,Paris,contact@mcjp.asso.fr,01 44 37 95 01,,,"48.8547877, 2.2895207"
Théo-Théâtre,"20, rue Théodore-Deck",,,75015,Paris,,01 45 54 00 16,01 45 58 66 90,http://www.theotheatre.com,"48.8371751, 2.2888634"
Théâtre le Ranelagh,"5, rue des Vignes",,,75016,Paris,administration@theatre-ranelagh.com,01 42 88 64 84,01 42 30 81 19,http://www.theatre-ranelagh.com,"48.854566, 2.277611"
L'Européen,"5, rue Biot",,,75017,Paris,europeen.staccato@wanadoo.fr,01 43 87 29 89,01 43 87 67 80,http://www.leuropeen.info,"48.8839467, 2.326466"
Atelier René Loyon,11 rue Saint-Luc,,,75018,Paris,compagnierl@wanadoo.fr,01 55 79 76 10,,http://www.compagnierl.com/,"48.8863035, 2.3541481"
Centre culturel Fleury Goutte d'Or - Barbara,"1, rue Fleury",,,75018,Paris,contact@fgo-barbara.fr,01 53 09 30 70,,http://www.centre-musical-fgo.fr,"48.8841878, 2.3541225"
Le Divan du Monde,"75, rue des Martyrs",,,75018,Paris,,,,http://www.divandumonde.com,"48.882444, 2.339593"
La Manufacture des Abbesses,"7, rue Véron",,,75018,Paris,,01 42 33 42 03,,http://www.manufacturedesabbesses.com,"48.884434, 2.33667"
Théâtre de La Reine Blanche,"2 bis, passage Ruelle",,,75018,Paris,,,,http://www.reineblanche.com,"48.8867083, 2.3582251"
Théâtre Le Funambule,"53, rue des Saules",,,75018,Paris,surlefil2006@yahoo.fr,01 42 23 88 83,01 46 06 31 97,http://www.funambule-montmartre.com/,"48.8907673, 2.3404795"
Théâtre Ouvert - Centre dramatique national de création,Jardin d'Hiver,"4 bis, cité Véron",,75018,Paris,,01 42 55 74 40,01 42 55 55 40,http://www.theatre-ouvert.net,"48.88483, 2.332291"
Abracadabar,"123, avenue Jean Jaurès",,,75019,Paris,info@abracadabar.fr,06 46 36 23 18,,http://www.abracadabar.fr,"48.8861001, 2.3822935"
Le Cabaret Sauvage,Parc de la Villette,211 avenue Jean Jaurè,,75019,Paris,cabaret@cabaretsauvage.com,01 42 09 03 09,01 42 09 11 17,http://www.cabaretsauvage.com,"48.886688, 2.384424"
Cité des Sciences et de l'Industrie,"30, avenue Corentin Cariou",,,75019,Paris,citeservice@cite-sciences.fr,01 40 05 70 00,,http://www.cite-sciences.fr,"48.8955948, 2.3878996"
Espace B,"16, rue Barbanègre",,,75019,Paris,programmation@espaceb.net,01 40 37 30 29,,http://www.espaceb.net,"48.8932337, 2.3844223"
Péniche Anako,Bassin de la Villette,Face au 61 quai de la Seine,,75019,Paris,admin@penicheanako.org,,,http://peniche.anako.com/,"48.8875478, 2.3760476"
Théâtre Paris-Villette,"211, avenue Jean-Jaurès",,,75019,Paris,,,,http://www.theatre-paris-villette.com,"48.8866647, 2.3844281"
Bibliothèque Sorbier à Paris,17 rue Sorbier,,,75020,Paris,bibliotheque.sorbier@paris.fr,01 46 36 17 79,,,"48.865991, 2.3927994"
La Flèche d'Or,"102 bis, rue de Bagnolet",,,75020,Paris,programmation.flechedor@orange.fr,01 44 64 01 02,01 44 64 05 93,http://www.flechedor.fr,"48.859432, 2.402888"
Studio Le Regard du Cygne,"210, rue de Belleville",,,75020,Paris,redcygne@free.fr,01 43 58 55 93,01 46 36 70 67,http://www.leregarducygne.com,"48.8751826, 2.3951875"
Le Théâtre aux mains nues,"7, square des Cardeurs",,,75020,Paris,contact.tmn@wanadoo.fr,01 43 72 60 28,01 43 72 60 43,http://www.theatre-aux-mains-nues.fr,"48.8584471, 2.4079768"
Théâtre national de la Colline,"15, rue Malte Brun",,,75020,Paris,,01 44 62 52 00,01 44 62 52 90,http://www.colline.fr,"48.8646159, 2.3975585"
Maison de l'UNESCO,"7, place de Fontenoy",,,75352,Paris 07 SP,,01 45 68 10 00,,http://www.unesco.org,"48.849591, 2.306255"
Auditorium du Louvre,Musée du Louvre,,,75001,Paris,auditorium@louvre.fr,01 40 20 55 55,,http://www.louvre.fr,"48.86101, 2.3358804"
Comédie Française / Studio-Théâtre,Carrousel du Louvre,Place de la Pyramide inversée,"99, rue de Rivoli",75001,Paris,,01 44 58 98 41,01 42 60 35 65,http://www.comedie-francaise.fr,"48.859993, 2.343687"
Espace Saint-Honoré,"62, rue Saint-Honoré",,,75001,Paris,salmon62@orange.fr,01 42 36 98 07,,,"48.8612738, 2.3436605"
Théâtre du Châtelet,Place du Châtelet,,,75001,Paris,,01 40 28 28 00,,http://www.chatelet-theatre.com,"48.8574799, 2.347244"
Opéra comique,"1, place Boieldieu",,,75002,Paris,info@opera-comique.com,01 42 44 45 40,,http://www.opera-comique.com,"48.8706772, 2.3376408"
Théâtre de la Michodière,"4 bis, rue de la Michodière",,,75002,Paris,,01 47 42 96 77,,,"48.869415, 2.334484"
Galerie Emmanuel Perrotin,"76, rue de Turenne",,,75003,Paris,info@perrotin.com,01 42 16 79 79,01 42 16 79 74,http://www.galerieperrotin.com,"48.8605304, 2.3646096"
Le Petit Casino,"17, rue Chapon",,,75003,Paris,,01 42 78 36 50,,http://www.lepetitcasino.fr,"48.8634259, 2.3560048"
Théâtre du marais,37 rue Volta,,,75003,Paris,,01 45 44 88 42,,http://www.theatre-du-marais.com/,"48.8663791, 2.3577818"
Centre culturel de Serbie,123 rue Saint-Martin,,,75004,Paris,info@ccserbie.com,01 42 72 50 50,01 42 72 52 80,http://www.ccserbie.com,"48.8608109, 2.3512384"
Théâtre de la Ville,"2, place du Châtelet",,,75004,Paris,,01 48 87 54 42,01 48 87 81 15,http://www.theatredelaville-paris.com/,"48.857529, 2.347702"
Bibliothèque de l'heure Joyeuse à Paris,12 Rue des Prêtres Saint-Séverin,,,75005,Paris,bibliotheque.heure-joyeuse@paris.fr,01 56 81 15 60,,http://equipement.paris.fr/,"48.8517824, 2.3449178"
Bibliothèque Rainer Maria Rilke à Paris,88 Ter boulevard de Port-Royal,,,75005,Paris,bibliotheque.rainer-maria.rilke@paris.fr,01 56 81 10 70,,,"48.8393, 2.339084"
Espace Quartier Latin,"37, rue Tournefort",,,75005,Paris,espacequartierlatin@wanadoo.fr,,,,"48.842449, 2.348238"
Théâtre Mouffetard,"73, rue Mouffetard",,,75005,Paris,,01 43 36 87 88,,http://www.theatremouffetard.com,"48.842305, 2.349845"
Maison des Cultures du Monde,"101, boulevard Raspail",,,75006,Paris,info@maisondesculturesdumonde.org,01 45 44 72 30,01 45 44 76 60,http://www.mcm.asso.fr,"48.8462774, 2.3285394"
Centre culturel arabe syrien,12 avenue de Tourville,,,75007,Paris,centreculturelsyrien@wanadoo.fr,01 47 05 30 11,01 47 05 23 11,http://www.centreculturelsyrien.info,"48.8542435, 2.3080558"
La Culée Rive-Gauche du Pont Alexandre III,Pont Alexandre III - Rive Gauche,Esplanade des Invalides,,75007,Paris,,,,,"48.8612598, 2.3132654"
Forum culturel autrichien,17 avenue de Villars,,,75007,Paris,,01 47 05 27 10,,http://www.fca-fr.com,"48.8519182, 2.3138044"
Comédie et Studio des Champs Élysées,"15, avenue Montaigne",,,75008,Paris,contact@comediedeschampselysees.com,01 53 23 99 10,01 53 23 99 09,http://www.comediedeschampselysees.com,"48.8656057, 2.303239"
Institut polonais,31 rue Jean Goujon,,,75008,Paris,info@institutpolonais.fr,01 53 93 90 10,01 45 62 07 90,http://www.institutpolonais.fr/,"48.865405, 2.304835"
Salle Gaveau,"45, rue de la Boétie",,,75008,Paris,c.fournier@sallegaveau.com,01 49 53 05 07,,http://www.sallegaveau.com,"48.873519, 2.314247"
Théâtre Marigny-Robert Hossein,Carré Marigny,,,75008,Paris,,01 53 96 70 30,01 53 96 70 31,http://www.theatremarigny.fr,"48.8692292, 2.3137183"
Bibliothèque Chaptal à Paris,26 rue Chaptal,,,75009,Paris,bibliotheque.chaptal@paris.fr,01 49 70 92 80,,,"48.8811255, 2.3323381"
Le Bistrot blanc,"52, rue Blanche",,,75009,Paris,bistroblanc@aol.com,01 49 95 01 75,,,"48.8802222, 2.3315307"
Comédie Caumartin,"25, rue Caumartin",,,75009,Paris,junqua.caumartin@yahoo.fr,01 42 61 52 12,01 42 61 73 00,,"48.8716377, 2.3281659"
L'Olympia,"28, boulevard des Capucines",,,75009,Paris,,,01 55 27 10 10,http://www.olympiahall.com,"48.87022, 2.328326"
Théâtre de Paris,"15, rue Blanche",,,75009,Paris,contact@theatredeparis.com,01 48 74 10 75,01 48 74 28 09,http://www.theatredeparis.com,"48.8786247, 2.33155"
Théâtre du Nord-Ouest,"13, rue du Faubourg-Montmartre",,,75009,Paris,public@theatredunordouest.com,01 47 00 19 31,01 43 38 52 66,http://theatredunordouest.com,"48.8723219, 2.3431114"
Théâtre Le Bout,6 rue Frochot,,,75009,Paris,contact@lebout.com,01 42 85 11 88,01 42 85 11 99,http://www.lebout.com/,"48.8813437, 2.3375871"
Bibliothèque François Villon à Paris,81 boulevard de la Villette,,,75010,Paris,bibliotheque.francois-villon@paris.fr,01 42 41 14 30,,,"48.8772136, 2.3707779"
Centre international d'accueil et d'échange des Résidences,"150-154, rue du Faubourg Saint-Martin",,,75010,Paris,contact@centre-les-recollets.com,01 53 26 21 00,01 53 26 21 08,http://www.centre-les-recollets.com,"48.8757442, 2.360315"
Le Palais des Glaces,"37, rue du Faubourg-du-Temple",,,75010,Paris,palaisdesglaces2@wanadoo.fr,01 42 02 05 25,01 42 02 10 25,http://www.palaisdesglaces.com,"48.8691104, 2.3683897"
Théâtre de la Porte Saint-Martin,"18, boulevard Saint-Martin",,,75010,Paris,jrc@theatre-portestmartin.fr,01 42 08 06 93 (secrétariat),01 42 40 18 33,http://www.portestmartin.com,"48.8688996, 2.3569994"
Théâtre des Bouffes du Nord,"37 bis, boulevard de la Chapelle",,,75010,Paris,cict@bouffesdunord.com,01 46 07 33 00,01 46 07 34 11,http://www.bouffesdunord.com,"48.884201, 2.358914"
L'Alimentation Générale,"64, rue Jean-Pierre Timbaud",,,75011,Paris,prod@alimentation-generale.net,,,http://www.alimentation-generale.net,"48.8675438, 2.3751443"
La Boutonnière,"25, rue Popincourt",,,75011,Paris,laboutonniere@gmail.com,01 43 55 05 32,,http://la.boutonniere.free.fr,"48.8581479, 2.3767665"
Conteners,30-32 rue de Lappe,,,75011,Paris,contact@conteners.org,,,http://www.conteners.org,"48.8530359, 2.3740213"
Espace Christian Dente,ACP la Manufacture Chanson,"124, avenue de la République",,75011,Paris,acp@manufacturechanson.org,01 43 58 19 94,01 79 75 87 19,http://www.manufacturechanson.org,"48.8629922, 2.3858033"
Le lieu du collectif 21.29.7,"37, rue des 3 bornes",,,75011,Paris,21.29.7.collectif@gmail.com,01 43 14 30 20,,,"48.867353, 2.374653"
Satellit Café,"44, rue de la Folie-Méricourt",,,75011,Paris,,01 47 00 48 87,,http://www.satellit-cafe.com,"48.8636131, 2.3723665"
Théâtre de BelleVille,"94, rue du Faubourg-du-Temple",Passage Piver,,75011,Paris,contact@theatredebelleville.com,01 48 06 72 34 (administration : 01 83 64 50 20),01 43 55 92 54,http://www.theatredebelleville.com/,"48.87089, 2.374345"
Théâtre de la danse,77 rue de Charonne,,,75011,Paris,infos@theatredeladanse.fr,01 43 56 89 87,01 43 56 89 87,http://www.theatredeladanse.fr/,"48.8538774, 2.3815069"
Le Zèbre,"61-63, boulevard de Belleville",,,75011,Paris,lezebre.paris@wanadoo.fr,01 43 55 55 55,01 43 55 55 90,http://www.lezebre.com,"48.8701947, 2.3787852"
Opéra National de Paris - Opéra Bastille,"120, rue de Lyon",,,75012,Paris,,01 40 01 80 54,,http://www.operadeparis.fr,"48.8519444, 2.3705556"
Théâtre de l'Épée de Bois,La Cartoucherie,Route du Champ de Manœuvre,,75012,Paris,programmation@epeedebois.com,01 48 08 18 75,,http://www.epeedebois.com/,"48.836581, 2.449467"
Bateau El Alamein,Quai François Mauriac,,,75013,Paris,bateauelalamein@yahoo.fr,,01 45 86 45 63,http://elalamein.free.fr,"48.8341379, 2.377319"
Centre culturel du Vietnam,19-19 bis rue Albert,,,75013,Paris,contact@ccv-france.org,01 53 82 48 42,01 53 82 48 42,http://www.ccv-france.org,"48.824578, 2.372767"
Centre Mandapa,"6, rue Wurtz",,,75013,Paris,centremandapa@yahoo.fr,01 45 89 01 60,,hhttp://www.centre-mandapa.fr/,"48.8276012, 2.345287"
Théâtre 13 / Seine,30 rue du Chevaleret,,,75013,Paris,,01 45 88 16 30.,,,"48.8276798, 2.3771732"
Bibliothèque Georges Brassens à Paris,38 rue Gassendi,,,75014,Paris,bibliotheque.georges-brassens@paris.fr,01 53 90 30 30,,,"48.8337127, 2.3257689"
Le Guichet Montparnasse,"15, rue du Maine",,,75014,Paris,leguichet@guichetmontparnasse.com,01 43 27 88 61,01 43 27 88 61,http://www.guichetmontparnasse.com,"48.8405727, 2.3223782"
Théâtre d'Edgar,"58, boulevard Edgar Quinet",,,75014,Paris,edgartheatre@gmail.com,01 43 22 11 02,01 43 20 37 92,http://www.edgar.fr,"48.8415105, 2.3244174"
Utopia,"79, rue de l'Ouest",,,75014,Paris,jacutopia@wanadoo.fr,01 43 22 79 66,01 45 42 66 63,http://www.utopia-cafeconcert.fr,"48.8353772, 2.3180495"
Le Prologue,"18, rue des Quatre Frères Peignot",,,75015,Paris,,01 45 75 33 15,01 45 77 39 12,,"48.84608, 2.282694"
Bibliothèque Musset à Paris,20 rue de Musset,,,75016,Paris,bibliotheque.musset@paris.fr,01 45 25 69 83,,,"48.8420491, 2.2632927"
L'Avant Rue,"134, rue de Tocqueville",,,75017,Paris,avant-rue@wanadoo.fr,01 44 15 96 86,01 44 15 96 48,http://www.avantrue.fr,"48.8889313, 2.3056531"
Le Petit Hébertot,"78 bis, boulevard des Batignolles",,,75017,Paris,,,,,"48.882011, 2.319026"
Théâtre le Méry,"7, place de Clichy",,,75017,Paris,contact@theatrelemery.com,01 45 22 18 66,,http://www.theatrelemery.com,"48.8837557, 2.3268201"
Bibliothèque Clignancourt à Paris,29 rue Hermel,,,75018,Paris,bibliotheque.clignancourt@paris.fr,01 53 41 35 60,,,"48.8916173, 2.3444353"
L'Étoile du Nord,"16, rue Georgette Agutte",,,75018,Paris,contact@etoiledunord-theatre.com,01 42 26 47 47,01 42 26 63 98,http://www.etoiledunord-theatre.com,"48.8954707, 2.3329044"
Rendez-vous des amis,"23, rue Gabrielle",,,75018,Paris,bar@rdvdesamis.com,01 42 64 58 22,,http://www.myspace.com/rendezvousdesamis,"48.8857454, 2.3406778"
Le Stock - École ATLA,"12, villa de Guelma",,,75018,Paris,atla@atla.fr,01 44 92 96 36,01 44 92 96 37,http://www.atla.fr,"48.883484, 2.3373633"
Théâtre de l'Atelier,"1, place Charles-Dullin",,,75018,Paris,,01 46 06 19 89,01 42 64 55 80,http://www.theatre-atelier.com,"48.8833559, 2.3427614"
Tremplin Théâtre,"39, rue des Trois-Frères",,,75018,Paris,contact@tremplintheatre.fr,01 48 60 66 05,01 49 63 94 94,http://www.tremplintheatre.fr,"48.88509, 2.339747"
Atelier du Plateau,"5, rue du Plateau",,,75019,Paris,atelierduplateau@free.fr,01 42 41 28 22,,http://atelierduplateau.free.fr,"48.8779396, 2.3851275"
Bibliothèque Hergé à Paris,2 rue du Département,,,75019,Paris,bibliotheque.herge@paris.fr,01 40 38 18 08,,,"48.8850939, 2.3669807"
Centre d'animation Curial,"90, rue Curial",,,75019,Paris,cacurial@laligue.org,01 40 34 91 69,01 46 07 96 33,,"48.8909462, 2.3719184"
La Géode,"26, av Corentin Cariou",,,75019,Paris,,01 40 05 79 99,,,"48.89461, 2.38872"
La Péniche Opéra,Bassin de la Villette,"Face au n°46, quai de Loir",,75019,Paris,penicheopera@hotmail.com,01 53 35 07 77,01 53 26 91 93,,"48.885746, 2.374859"
Le vent se lève,181 bis avenue Jean Jaurès,,,75019,Paris,contact@leventseleve.com,01 77 35 94 36,,http://www.leventseleve.com/,"48.887838, 2.388788"
Bouillon Belge,"6, rue Planchat",,,75020,Paris,,,,,"48.8519314, 2.3993522"
Chez Pascaline,"49, rue de Pixericourt",,,75020,Paris,,01 44 62 22 80,,,"48.872847, 2.396057"
Médiathèque Marguerite Duras à Paris,115 rue de Bagnolet,,,75020,Paris,mediatheque.marguerite-duras@paris.fr,01 55 25 49 10,,,"48.8599582, 2.4036253"
Théâtre de Ménilmontant,15 rue du Retrait,,,75020,Paris,victor.tdm@orange.fr,01 46 36 03 43,01 47 97 74 75,http://menilmontant.info,"48.8682481, 2.3949021"
Centre culturel héllenique,23 rue de Galilée,,,75116,Paris,contact@cchel.org,01 47 23 39 06,,http://www.cchel.com/fr/,"48.868907, 2.294173"
Goethe Institut Paris,17 avenue d'Iéna,,,75116,Paris,info@paris.goethe.org,01 44 43 92 30,01 44 43 92 40,http://www.goethe.de/paris,"48.8661287, 2.2944094"
Parc de la Villette,"211, avenue Jean Jaurès",,,75935,Paris Cedex 19,,,,,"48.893827, 2.390274"
Comédie Française / Salle Richelieu,Place Colette,,,75001,Paris,informations@comedie-francaise.org,01 44 58 14 00,01 44 58 15 50,http://www.comedie-francaise.fr,"48.8631944, 2.3358333"
Église Saint-Eustache,2 impasse Saint-Eustache,,,75001,Paris,paroisse@saint-eustache.org,01 42 36 31 05,01 42 33 77 87,http://www.saint-eustache.org/vie-artistique.php,"48.863393, 2.345099"
Le Sunset,"60, rue des Lombards",,,75001,Paris,,01 40 26 46 60,,http://www.sunset-sunside.com/,"48.8597984, 2.3477737"
Café théâtre Oscar,155 rue Montmartre,,,75002,Paris,,01 42 21 09 61,01 42 06 77 48,,"48.870695, 2.3425543"
Le Mélo d'Amélie,"4, rue Marie-Stuart",,,75002,Paris,jeanluclopez@yahoo.fr,01 40 39 08 36,01 40 26 47 70,http://www.lemelodamelie.com,"48.865007, 2.3484285"
Théâtre Daunou,"7, rue Daunou",,,75002,Paris,,01 42 61 52 12,01 42 61 73 00,,"48.8693358, 2.3320464"
La gaîté lyrique,3 bis rue Papin,,,75003,Paris,,01 53 01 52 00,,http://www.gaite-lyrique.net/,"48.866836, 2.353579"
Maison de la Poésie,Passage Molière,"157, rue Saint-Martin",,75003,Paris,,,01 42 71 11 02,http://www.maisondelapoesieparis.com,"48.8623474, 2.3519539"
Théâtre Dejazet,"41, boulevard du Temple",,,75003,Paris,theatredejazet@yahoo.fr,01 48 87 97 34,01 48 87 10 21,http://dejazet.com/,"48.8662732, 2.3645587"
Café de la Gare,"41, rue du Temple",,,75004,Paris,cdlg5@wanadoo.fr,01 42 78 52 51,01 42 78 10 29,http://www.cdlg.fr,"48.859552, 2.353949"
Le Point Virgule,"7, rue Sainte-Croix de la Bretonnerie",,,75004,Paris,le-point-virgule@orange.fr,01 42 78 67 03,,http://www.lepointvirgule.com,"48.8577984, 2.356857"
Bibliothèque Buffon à Paris,15 Bis rue Buffon,,,75005,Paris,bibliotheque.buffon@paris.fr,01 55 43 25 25,,,"48.8425588, 2.3619168"
Centre d'art et de culture de l'espace Rachi Guy de Rothschild,"39, rue Broca",,,75005,Paris,,01 43 31 93 66,,http://www.cuture.juive.org,"48.8379284, 2.3478231"
La Sorbonne,"17, rue de la Sorbonne",,,75005,Paris,secretg@univ-paris1.fr,01 44 07 77 06,01 46 34 76 96,http://www.univ-paris1.fr/universite/,"48.8488341, 2.3430945"
Théâtre de la Vieille Grille,"1, rue du Puits de l'Ermite (entrée public)","9, rue Larrey (administration)",,75005,Paris,vieillegrille@gmail.com,01 47 07 22 11,,http://www.vieillegrille.fr,"48.8421677, 2.3535101"
Institut Hongrois,92 rue Bonaparte,,,75006,Paris,info@instituthongrois.fr,01 43 26 06 44,01 43 26 89 92,http://www.instituthongrois.fr,"48.8491787, 2.3326096"
British Council France,9 rue de Constantine,,,75007,Paris,,01 49 55 73 00,01 47 05 77 02,http://www.britishcouncil.org/fr/france.htm,"48.8601846, 2.3149982"
Centre culturel roumain,1 rue de l'Exposition,,,75007,Paris,institut@institut-roumain.org,01 47 05 15 31,01 47 05 15 50,http://www.institut-roumain.org,"48.8581214, 2.3027688"
Espace EDF Electra,"6, rue Récamier",,,75007,Paris,,01 53 63 23 45,,http://fondation.edf.com/,"48.8522346, 2.327984"
Théâtre Adyar,"4, square Rapp",,,75007,Paris,contact@theatre-adyar.fr,01 45 55 67 63,,http://www.theatre-adyar.fr/,"48.8587282, 2.3006611"
Institut culturel bulgare,28 rue de la Boétie,,,75008,Paris,contact@ccbulgarie.com,01 43 59 20 52,01 43 59 20 52,http://www.ccbulgarie.com,"48.873967, 2.315583"
Maison du Danemark,142 avenue des Champs-Élysées,,,75008,Paris,mdd@maisondudanemark.dk,01 44 31 21 21,01 44 31 21 88,http://www.maisondudanemark.dk,"48.8729541, 2.2987248"
Théâtre du Rond-Point,"2 bis, avenue Franklin Roosevelt",,,75008,Paris,,01 44 95 98 00,01 40 75 04 48,http://www.theatredurondpoint.fr,"48.867725, 2.310878"
Athénée - Théâtre Louis Jouvet,Square de l'Opéra Louis Jouvet,"7, rue Boudreau",,75009,Paris,contact@athenee-theatre.com,01 53 05 19 00,01 53 05 19 01,http://www.athenee-theatre.com,"48.8722285, 2.3291574"
Bibliothèque Valeyre à Paris,24 rue de Rochechouart,,,75009,Paris,bibliotheque.valeyre@paris.fr,01 42 85 27 56,,,"48.8781077, 2.3449333"
Centre d'animation Valeyre,"24, rue Rochechouart",,,75009,Paris,cavaleyre@laligue.org,01 48 78 20 12,01 48 78 37 84,,"48.8781077, 2.3449333"
Max Linder Panorama,24 Boulevard Poissonnière,,,75009,Paris,bureaumaxlinder@free.fr,01 48 00 90 24,,http://maxlinder.cine.allocine.fr,"48.8713917, 2.3448744"
Théâtre de l'oeuvre,"55, rue de Clichy",,,75009,Paris,adm@theatredeloeuvre.fr,01 44 53 88 80,01 44 53 88 81,http://www.theatredeloeuvre.fr/,"48.8803626, 2.3290195"
Théâtre La Bruyère,"5, rue La Bruyère",,,75009,Paris,la.bruyere@wanadoo.fr,01 48 74 88 21,01 40 23 94 51,http://www.theatrelabruyere.com/,"48.8789505, 2.3363533"
Alhambra,"21, rue Yves-Toudic",,,75010,Paris,contact@alhambra-paris.com,01 40 20 40 25,01 40 20 40 26,http://www.alhambra-paris.com,"48.8706729, 2.3630652"
l'ARTiC,40 rue de Paradis,,,75010,Paris,info@artic-paris.fr,01 42 78 38 64,,http://articparis.free.fr/,"48.8754651, 2.3506162"
Centre d'animation Jean Verdier,"11, rue de Lancry",,,75010,Paris,information-jv@crl10.net,01 42 03 00 47,01 42 03 23 25,http://www.jeanverdier.com,"48.869387, 2.360108"
New Morning,7 & 9 Rue des Petites Ecuries,,,75010,Paris,newmorning@orange.fr,01 45 23 51 41,,http://www.newmorning.com/pratique,"48.8734054, 2.352719"
Théâtre Comédia,"4, boulevard de Strasbourg",,,75010,Paris,evelyne@soumere.com,01 42 38 34 60,01 44 52 91 95,http://www.theatrecomedia.com,"48.869892, 2.3545707"
Théâtre de la Renaissance,"20, boulevard Saint-Martin",,,75010,Paris,contact@theatredelarenaissance.com,01 42 02 47 35,01 42 03 17 84,http://www.theatredelarenaissance.com,"48.8690494, 2.3563207"
Aktéon Théâtre,"11, rue du Général-Blaise",,,75011,Paris,akteon.theatre@wanadoo.fr,01 43 38 74 62,01 43 38 47 58,http://www.akteon.fr,"48.8617875, 2.3781617"
Bibliothèque Faidherbe à Paris,18 rue Faidherbe,,,75011,Paris,bibliotheque.faidherbe@paris.fr,01 55 25 80 20,,,"48.851579, 2.3840575"
Comédie Nation,"77, rue de Montreuil",,,75011,Paris,contact@comedienation.com,01 48 05 52 44,,http://www.comedienation.com,"48.8484884, 2.3975373"
Kiron Espace,"10, rue La Vacquerie",,,75011,Paris,contact@kiron.fr,01 44 64 11 50,01 43 73 55 10,http://www.kiron.fr,"48.8579917, 2.3852271"
Naxos Bobine,"135, rue de la Roquette",,,75011,Paris,info@naxosbobine.org,06 63 15 19 73,,http://www.naxosbobine.org,"48.8585901, 2.3838337"
Le Réservoir,"16, rue de la Forge Royale",,,75011,Paris,lereservoir@wanadoo.fr,01 43 56 39 60,01 43 56 31 73,http://www.reservoirclub.com,"48.8514624, 2.3806522"
Théâtre Côté cour,"12, rue Edouard Lockroy",,,75011,Paris,theatrecotecour@free.fr,01 47 00 43 55,,http://www.theatrecotecour.com/,"48.86585, 2.3745249"
La Vitrine,"24, rue Moret",,,75011,Paris,,01 43 38 49 65,,http://www.ensapc.fr/lavitrine,"48.8674299, 2.3793209"
Maison rouge,10 boulevard de la bastille,,,75012,Paris,,01 40 01 08 81,01 40 01 08 83,http://www.lamaisonrouge.org/,"48.847334, 2.367529"
OPA,"9, rue Biscornet",,,75012,Paris,opa_paris@yahoo.fr,01 46 28 12 90,,http://www.opa-paris.com,"48.850331, 2.369691"
Théâtre de l'Aquarium,La Cartoucherie,Route du Champ de Manœuvre,,75012,Paris,theatredelaquarium@wanadoo.fr,01 43 74 72 74,01 43 28 13 60,http://www.theatredelaquarium.com,"48.836094, 2.450119"
Théâtre Traversière,"15, rue Traversière",,,75012,Paris,communication@cerpse.com,01 43 41 81 27,01 46 28 80 51,http://www.traversiere.net/,"48.8460581, 2.3711086"
Café Fou,Quai François Mauriac,,,75013,Paris,,01 43 54 19 51,,,"48.8341379, 2.377319"
Centre d'animation Daviel,"24, rue Daviel",,,75013,Paris,,01 45 89 05 99,01 45 89 44 14,,"48.8281802, 2.3447099"
Petit bain,7 Ports de la Gare,"(Au pied de la BnF, à côté de la Piscine Joséphine Baker)",,75013,Paris,contact@petitbain.org,01 43 49 68 92,,http://www.petitbain.org,"48.833008, 2.379376"
Bibliothèque Aimé Césaire à Paris,5 rue de Ridder,,,75014,Paris,bibliotheque.aime-cesaire@paris.fr,01 45 41 24 74,,,"48.8311684, 2.3116801"
L'Entrepôt,"7/9, rue Francis de Pressensé",,,75014,Paris,communication@lentrepot.fr,,01 45 40 07 51,http://www.lentrepot.fr,"48.8338664, 2.3165939"
Théâtre Rive Gauche,"6, rue de la Gaîté",,,75014,Paris,edgartheatre@gmail.com,01 43 22 11 02,01 43 20 37 92,http://www.edgar.fr,"48.8407799, 2.3244134"
Foranim,"48, rue Bargue",,,75015,Paris,accueil@foranim.org,01 47 83 79 59,,http://foranim.org/,"48.8377741, 2.3090004"
Médiathèque Marguerite Yourcenar à Paris,"41, rue d'Alleray",,,75015,Paris,mediatheque.marguerite-yourcenar@paris.fr,01 45 30 71 41,,,"48.8368784, 2.3036346"
Bibliothèque Germaine Tillion à Paris,6 rue du Commandant Schloesing,,,75016,Paris,bibliotheque.germaine-tillion@paris.fr,01 47 04 70 85,,,"48.861891, 2.2846598"
Théâtre national de Chaillot,"1, place du Trocadéro",,,75016,Paris,,01 53 65 31 00,01 47 27 10 31,http://www.theatre-chaillot.fr,"48.8629064, 2.2882512"
Palais des Congrès,"2, place de la Porte Maillot",,,75017,Paris,commercial@palaisdescongres-paris.com,01 40 68 22 22,,http://www.palaisdescongres-paris.com,"48.878988, 2.2820839"
Théâtre Hébertot,"78 bis, boulevard des Batignolles",,,75017,Paris,theatre.hebertot@wanadoo.fr,01 43 87 23 23,01 42 93 72 39,http://www.theatrehebertot.com,"48.882011, 2.319026"
L'Atelier théâtre de Montmartre,"7, rue Coustou",,,75018,Paris,ateliertheatredemontmartre@wanadoo.fr,01 46 06 53 20,,http://www.ateliertheatredemontmartre.com/,"48.8839996, 2.33399"
Élysée Montmartre,"72, boulevard Rochechouart",,,75018,Paris,ccil@elyseemontmartre.com,,01 42 23 46 50,http://www.elyseemontmartre.com,"48.8829464, 2.3437224"
Olympic Café,"20, rue Léon",,,75018,Paris,lmp@rueleon.net,01 42 52 42 63,01 42 52 44 94,http://www.rueleon.net,"48.8878547, 2.3535367"
Le Set de la Butte,"7, rue Pierre Picard",,,75018,Paris,contact@lesetdelabutte.com,,,http://www.lesetdelabutte.com,"48.8846636, 2.3463095"
Théâtre de la Ville - Les Abbesses,"31, rue des Abbesses",,,75018,Paris,,,,http://www.theatredelaville-paris.com,"48.884841, 2.337333"
Théâtre Pixel,"18, rue Championnet",,,75018,Paris,theatrepixel@free.fr,01 42 54 00 92,09 55 18 74 93,http://www.theatrepixel.com,"48.89522, 2.351726"
Art Studio Théâtre,299 rue de Belleville,,,75019,Paris,ast@artstudiotheatre.org,,,http://www.artstudiotheatre.org/,"48.8762965, 2.4026227"
Le 104,"104, rue d'Aubervilliers",,,75019,Paris,contact@104.fr,01 40 05 51 71,01 40 05 54 45,http://www.104.fr,"48.890499, 2.3684991"
Conservatoire de Paris,209 avenue Jean-Jaurès,,,75019,Paris,,01 40 40 45 45,,http://www.cnsmdp.fr/,"48.88896, 2.390939"
FRAC Ile-de-France Le Plateau,place Annah Arendt,,,75019,Paris,,01 76 21 13 41,,http://www.fracidf-leplateau.com/,"48.877678, 2.385733"
Péniche L’antipode,"55, quai de la Seine",,,75019,Paris,,,,http://www.abricadabra.fr/peniche.html,"48.8871395, 2.375465"
Le Trabendo,Parc de la Villette,"211, avenue Jean-Jaurès",,75019,Paris,,01 42 01 12 12,,http://www.trabendo.fr,"48.886706, 2.384424"
Bliothèque Oscar Wilde à Paris,12 rue du Télégraphe,,,75020,Paris,bibliotheque.oscar-wilde@paris.fr,01 43 66 84 29,,,"48.8719783, 2.3999956"
Centre Animation Amandiers,110 rue des Amandiers,,,75020,Paris,amandiers@laligue.org,01 44 62 85 40,01 43 66 49 24,,"48.867958, 2.3887483"
La Maroquinerie,"23, rue Boyer",,,75020,Paris,info@lamaroquinerie.fr,01 40 33 30 60,01 40 33 35 06,http://www.lamaroquinerie.fr,"48.868582, 2.392112"
Théâtre de l'Est Parisien,"159, avenue Gambetta",,,75020,Paris,infos@theatre-estparisien.net,01 40 31 20 96,01 43 64 07 50,http://www.theatre-estparisien.net/,"48.8703681, 2.4031773"
Vingtième Théâtre,"7, rue des Plâtrières",,,75020,Paris,,01 43 66 01 34,01 46 36 76 75,http://www.vingtiemetheatre.com,"48.8678999, 2.389464"
Espace Périphérique,"211, avenue Jean Jaurès",,,75935,Paris cedex 19,espaceperipherique@villette.com,01 40 03 72 83,01 40 03 72 84,,"48.8866647, 2.3844281"
